IRIDIUM 166             
1 43570U 18061B   24063.88678674  .00000112  00000+0  32977-4 0  9999
2 43570  86.3952  45.8026 0002422  96.8568 263.2903 14.34217744293670
IRIDIUM 158             
1 43571U 18061C   24063.85507010  .00000422  00000+0  14349-3 0  9998
2 43571  86.3954  45.8251 0002493  88.0105 272.1376 14.34217474293630
IRIDIUM 165             
1 43572U 18061D   24063.88044300  .00000122  00000+0  36428-4 0  9990
2 43572  86.3953  45.8451 0002551  89.4700 270.6788 14.34217452293662
IRIDIUM 155             
1 43573U 18061E   24063.98191730  .00000629  00000+0  21737-3 0  9990
2 43573  86.3951  45.7130 0002063  92.4539 267.6893 14.34223447293659
IRIDIUM 154             
1 43574U 18061F   24064.03267809  .00000494  00000+0  16920-3 0  9997
2 43574  86.3953  45.7843 0002193  82.2878 277.8567 14.34217475293701
IRIDIUM 163             
1 43575U 18061G   24064.01363645  .00000063  00000+0  15305-4 0  9990
2 43575  86.3952  45.7339 0002163  85.6839 274.4604 14.34217220293671
IRIDIUM 156             
1 43576U 18061H   24063.98826737  .00000463  00000+0  15826-3 0  9993
2 43576  86.3952  45.7508 0002383  91.7663 268.3806 14.34218902293659
IRIDIUM 164             
1 43577U 18061J   24063.89947191  .00000318  00000+0  10646-3 0  9996
2 43577  86.3953  45.8151 0002496  86.1882 273.9599 14.34217870293690
